1 29155U 06018A   10013.50198296 -.00000084  00000-0  10000-3 0  9269
2 29155 000.3926 092.0447 0002942 159.5312 296.5997 01.00272132 13361